NORAD_CAT_ID,OBJECT_NAME,OBJECT_TYPE,EPOCH,MEAN_MOTION,ECCENTRICITY,INCLINATION,RA_OF_ASC_NODE,ARG_OF_PERICENTER,MEAN_ANOMALY,BSTAR,MEAN_MOTION_DOT,MEAN_MOTION_DDOT,TLE_LINE0,TLE_LINE1,TLE_LINE2,SEMIMAJOR_AXIS,PERIOD,APOGEE,PERIGEE,DECAYED
52488.0,STARLINK-3892,PAYLOAD,2024-01-11 05:22:46,15.08852227,0.000167,53.2163,358.6792,103.8933,256.2245,0.00027639,4.115e-05,0.0,0 STARLINK-3892,1 52488U 22049AP  24011.22415099  .00004115  00000-0  27639-3 0  9995,2 52488  53.2163 358.6792 0001670 103.8933 256.2245 15.08852227 93389,6917.843,95.437,540.863,538.553,0.0
52488.0,STARLINK-3892,PAYLOAD,2024-01-12 03:38:11,15.08837285,0.0001699,53.2177,354.5182,83.3026,276.8159,6.0879e-05,6.81e-06,0.0,0 STARLINK-3892,1 52488U 22049AP  24012.15151909  .00000681  00000-0  60879-4 0  9993,2 52488  53.2177 354.5182 0001699  83.3026 276.8159 15.08837285 93523,6917.889,95.438,540.929,538.578,0.0
52488.0,STARLINK-3892,PAYLOAD,2024-01-12 08:24:20,15.08842183,0.0001653,53.2174,353.624,101.708,258.4098,0.00010822,1.435e-05,0.0,0 STARLINK-3892,1 52488U 22049AP  24012.35023308  .00001435  00000-0  10822-3 0  9996,2 52488  53.2174 353.6240 0001653 101.7080 258.4098 15.08842183 93554,6917.874,95.437,540.882,538.595,0.0
52488.0,STARLINK-3892,PAYLOAD,2024-01-13 05:04:21,15.08815763,0.000211,53.2193,349.7567,122.3801,237.7395,0.00034092,5.138e-05,0.0,0 STARLINK-3892,1 52488U 22049AP  24013.21136245  .00005138  00000-0  34092-3 0  9996,2 52488  53.2193 349.7567 0002110 122.3801 237.7395 15.08815763 93680,6917.954,95.439,541.279,538.36,0.0
52488.0,STARLINK-3892,PAYLOAD,2024-01-14 04:55:08,15.08833352,0.0001674,53.2199,345.3031,94.4064,265.712,3.8104e-05,3.18e-06,0.0,0 STARLINK-3892,1 52488U 22049AP  24014.20496436  .00000318  00000-0  38104-4 0  9991,2 52488  53.2199 345.3031 0001674  94.4064 265.7120 15.08833352 93836,6917.901,95.438,540.924,538.608,0.0
52488.0,STARLINK-3892,PAYLOAD,2024-01-14 22:24:23,15.08826275,0.0002098,53.2198,342.0344,117.2429,242.8777,0.00012977,1.777e-05,0.0,0 STARLINK-3892,1 52488U 22049AP  24014.93360774  .00001777  00000-0  12977-3 0  9995,2 52488  53.2198 342.0344 0002098 117.2429 242.8777 15.08826275 93780,6917.922,95.438,541.239,538.336,0.0
52488.0,STARLINK-3892,PAYLOAD,2024-01-15 04:45:55,15.08848301,0.0002071,53.2204,340.8459,115.3534,244.7673,0.00015124,2.12e-05,0.0,0 STARLINK-3892,1 52488U 22049AP  24015.19855544  .00002120  00000-0  15124-3 0  9998,2 52488  53.2204 340.8459 0002071 115.3534 244.7673 15.08848301 93980,6917.855,95.437,541.153,538.287,0.0
52488.0,STARLINK-3892,PAYLOAD,2024-01-16 07:47:29,15.08838564,0.0001912,53.219,335.7836,86.3246,273.7965,6.4043e-05,7.31e-06,0.0,0 STARLINK-3892,1 52488U 22049AP  24016.32464768  .00000731  00000-0  64043-4 0  9999,2 52488  53.2190 335.7836 0001912  86.3246 273.7965 15.08838564 94152,6917.885,95.438,541.072,538.427,0.0
52488.0,STARLINK-3892,PAYLOAD,2024-01-17 04:27:30,15.08848292,0.0001941,53.2195,331.9174,99.8468,260.2744,1.0232e-05,-1.25e-06,0.0,0 STARLINK-3892,1 52488U 22049AP  24017.18576468 -.00000125  00000-0  10232-4 0  9994,2 52488  53.2195 331.9174 0001941  99.8468 260.2744 15.08848292 94129,6917.855,95.437,541.063,538.377,0.0
52488.0,STARLINK-3892,PAYLOAD,2024-01-18 04:18:17,15.08842626,0.0002008,53.2204,327.4571,71.9909,288.1302,4.9497e-05,5e-06,0.0,0 STARLINK-3892,1 52488U 22049AP  24018.17936799  .00000500  00000-0  49497-4 0  9992,2 52488  53.2204 327.4571 0002008  71.9909 288.1302 15.08842626 94435,6917.872,95.437,541.126,538.348,0.0
52488.0,STARLINK-3892,PAYLOAD,2024-01-19 05:44:26,15.0885472,0.0001879,53.221,322.6928,86.4131,273.7077,1.9011e-05,1.5e-07,0.0,0 STARLINK-3892,1 52488U 22049AP  24019.23919876  .00000015  00000-0  19011-4 0  9997,2 52488  53.2210 322.6928 0001879  86.4131 273.7077 15.08854720 94592,6917.835,95.437,541.0,538.401,0.0
52488.0,STARLINK-3892,PAYLOAD,2024-01-19 20:02:56,15.08836657,0.0001647,53.2192,320.0239,79.3227,280.795,-1.4696e-05,-5.22e-06,0.0,0 STARLINK-3892,1 52488U 22049AP  24019.83537142 -.00000522  00000-0 -14696-4 0  9994,2 52488  53.2192 320.0239 0001647  79.3227 280.7950 15.08836657 94685,6917.891,95.438,540.895,538.616,0.0
52488.0,STARLINK-3892,PAYLOAD,2024-01-19 23:13:42,15.08838055,0.0001549,53.2182,319.4329,85.3196,274.7974,-7.2478e-06,-4.03e-06,0.0,0 STARLINK-3892,1 52488U 22049AP  24019.96784973 -.00000403  00000-0 -72478-5 0  9995,2 52488  53.2182 319.4329 0001549  85.3196 274.7974 15.08838055 94547,6917.886,95.438,540.823,538.68,0.0
52488.0,STARLINK-3892,PAYLOAD,2024-01-20 02:24:28,15.08844165,0.0001702,53.2194,318.8375,91.1491,268.9696,1.2993e-06,-2.67e-06,0.0,0 STARLINK-3892,1 52488U 22049AP  24020.10032519 -.00000267  00000-0  12993-5 0  9998,2 52488  53.2194 318.8375 0001702  91.1491 268.9696 15.08844165 94723,6917.868,95.437,540.91,538.555,0.0
52488.0,STARLINK-3892,PAYLOAD,2024-01-20 05:35:13,15.08849549,0.0001583,53.2183,318.2377,103.5844,256.5325,3.055e-05,1.98e-06,0.0,0 STARLINK-3892,1 52488U 22049AP  24020.23279921  .00000198  00000-0  30550-4 0  9992,2 52488  53.2183 318.2377 0001583 103.5844 256.5325 15.08849549 94581,6917.851,95.437,540.811,538.621,0.0
52488.0,STARLINK-3892,PAYLOAD,2024-01-20 23:04:29,15.0887146,0.000178,53.2177,314.9646,105.7142,254.4047,-0.00049453,-8.157e-05,0.0,0 STARLINK-3892,1 52488U 22049AP  24020.96144698 -.00008157  00000-0 -49453-3 0  9990,2 52488  53.2177 314.9646 0001780 105.7142 254.4047 15.08871460 94697,6917.784,95.436,540.881,538.418,0.0
52488.0,STARLINK-3892,PAYLOAD,2024-01-21 02:15:15,15.08844403,0.0001672,53.2192,314.3673,116.1579,243.9585,-6.2868e-05,-1.289e-05,0.0,0 STARLINK-3892,1 52488U 22049AP  24021.09392602 -.00001289  00000-0 -62868-4 0  9990,2 52488  53.2192 314.3673 0001672 116.1579 243.9585 15.08844403 94875,6917.867,95.437,540.889,538.575,0.0
52488.0,STARLINK-3892,PAYLOAD,2024-01-21 19:44:31,15.08824001,0.0001439,53.2178,311.0992,113.1121,247.0023,-0.00011262,-2.079e-05,0.0,0 STARLINK-3892,1 52488U 22049AP  24021.82258623 -.00002079  00000-0 -11262-3 0  9994,2 52488  53.2178 311.0992 0001439 113.1121 247.0023 15.08824001 94984,6917.929,95.439,540.79,538.799,0.0
52488.0,STARLINK-3892,PAYLOAD,2024-01-21 22:55:17,15.08828445,0.0001303,53.2185,310.507,100.4016,259.7123,-8.5904e-05,-1.654e-05,0.0,0 STARLINK-3892,1 52488U 22049AP  24021.95506380 -.00001654  00000-0 -85904-4 0  9997,2 52488  53.2185 310.5070 0001303 100.4016 259.7123 15.08828445 94847,6917.916,95.438,540.682,538.879,0.0
52488.0,STARLINK-3892,PAYLOAD,2024-01-22 00:30:40,15.0882977,0.0001393,53.2183,310.2097,102.1355,257.9793,-7.1741e-05,-1.429e-05,0.0,0 STARLINK-3892,1 52488U 22049AP  24022.02130301 -.00001429  00000-0 -71741-4 0  9996,2 52488  53.2183 310.2097 0001393 102.1355 257.9793 15.08829770 95010,6917.912,95.438,540.74,538.813,0.0
52488.0,STARLINK-3892,PAYLOAD,2024-01-22 22:46:03,15.08845434,0.0001382,53.2186,306.0493,101.3658,258.7489,7.8999e-05,9.7e-06,0.0,0 STARLINK-3892,1 52488U 22049AP  24022.94865346  .00000970  00000-0  78999-4 0  9991,2 52488  53.2186 306.0493 0001382 101.3658 258.7489 15.08845434 94993,6917.864,95.437,540.685,538.773,0.0
52488.0,STARLINK-3892,PAYLOAD,2024-01-23 00:21:26,15.08842251,0.0001506,53.2196,305.7534,88.948,271.1685,0.00010286,1.35e-05,0.0,0 STARLINK-3892,1 52488U 22049AP  24023.01489408  .00001350  00000-0  10286-3 0  9998,2 52488  53.2196 305.7534 0001506  88.9480 271.1685 15.08842251 95168,6917.874,95.437,540.78,538.697,0.0
52488.0,STARLINK-3892,PAYLOAD,2024-01-23 22:36:50,15.08843032,0.0001295,53.2195,301.5928,84.6734,275.4406,0.0001775,2.538e-05,0.0,0 STARLINK-3892,1 52488U 22049AP  24023.94225332  .00002538  00000-0  17750-3 0  9996,2 52488  53.2195 301.5928 0001295  84.6734 275.4406 15.08843032 95142,6917.871,95.437,540.632,538.84,0.0
52488.0,STARLINK-3892,PAYLOAD,2024-01-24 01:47:36,15.08843175,0.0001252,53.2182,300.9937,75.8562,284.2569,0.00019959,2.89e-05,0.0,0 STARLINK-3892,1 52488U 22049AP  24024.07473229  .00002890  00000-0  19959-3 0  9995,2 52488  53.2182 300.9937 0001252  75.8562 284.2569 15.08843175 95321,6917.871,95.437,540.602,538.87,0.0
52488.0,STARLINK-3892,PAYLOAD,2024-01-24 22:27:37,15.08849353,0.0001376,53.218,297.1291,73.9666,286.1477,-6.683e-05,-1.352e-05,0.0,0 STARLINK-3892,1 52488U 22049AP  24024.93585500 -.00001352  00000-0 -66830-4 0  9991,2 52488  53.2180 297.1291 0001376  73.9666 286.1477 15.08849353 95299,6917.852,95.437,540.669,538.765,0.0
52488.0,STARLINK-3892,PAYLOAD,2024-01-25 01:38:23,15.08853025,0.0001669,53.2178,296.5328,65.524,294.5927,-3.8299e-05,-8.98e-06,0.0,0 STARLINK-3892,1 52488U 22049AP  24025.06833185 -.00000898  00000-0 -38299-4 0  9993,2 52488  53.2178 296.5328 0001669  65.5240 294.5927 15.08853025 95317,6917.841,95.437,540.86,538.551,0.0
52488.0,STARLINK-3892,PAYLOAD,2024-01-25 22:18:25,15.0883677,0.000181,53.2188,292.6652,59.1748,300.9422,-9.9683e-06,-4.47e-06,0.0,0 STARLINK-3892,1 52488U 22049AP  24025.92946099 -.00000447  00000-0 -99683-5 0  9992,2 52488  53.2188 292.6652 0001810  59.1748 300.9422 15.08836770 95449,6917.89,95.438,541.007,538.503,0.0
52488.0,STARLINK-3892,PAYLOAD,2024-01-25 23:53:48,15.08837888,0.0002127,53.2188,292.37,49.2365,310.8811,4.9108e-06,-2.1e-06,0.0,0 STARLINK-3892,1 52488U 22049AP  24025.99570122 -.00000210  00000-0  49108-5 0  9993,2 52488  53.2188 292.3700 0002127  49.2365 310.8811 15.08837888 95619,6917.887,95.438,541.223,538.28,0.0
52488.0,STARLINK-3892,PAYLOAD,2024-01-26 23:44:34,15.08852576,0.0001064,53.2165,287.9094,93.8876,266.2237,4.5788e-05,4.41e-06,0.0,0 STARLINK-3892,1 52488U 22049AP  24026.98928630  .00000441  00000-0  45788-4 0  9998,2 52488  53.2165 287.9094 0001064  93.8876 266.2237 15.08852576 95764,6917.842,95.437,540.443,538.971,0.0
52488.0,STARLINK-3892,PAYLOAD,2024-01-27 20:24:35,15.08837408,0.0001503,53.2168,284.0439,93.3531,266.7633,7.1555e-05,8.51e-06,0.0,0 STARLINK-3892,1 52488U 22049AP  24027.85041593  .00000851  00000-0  71555-4 0  9995,2 52488  53.2168 284.0439 0001503  93.3531 266.7633 15.08837408 95895,6917.888,95.438,540.793,538.714,0.0
